{"type": "FeatureCollection", "features": [ {"type": "Feature", "properties": {"norad_id": 66508, "name": "STARLINK-35608", "group": "last-30-days", "lat": 10.358259116009611, "lon": -12.733254433026616, "alt_km": 355.7579714132007, "timestamp": "2025-12-03T15:48:01.919703+00:00", "meta": {"OBJECT_NAME": "STARLINK-35608", "OBJECT_ID": "2025-263Z", "EPOCH": "2025-12-03T06:00:02.999808", "MEAN_MOTION": 15.72457762, "ECCENTRICITY": 0.0001784, "INCLINATION": 42.999, "RA_OF_ASC_NODE": 181.0442, "ARG_OF_PERICENTER": 272.9774, "MEAN_ANOMALY": 98.7273, "EPHEMERIS_TYPE": 0, "CLASSIFICATION_TYPE": "U", "NORAD_CAT_ID": 66508, "ELEMENT_SET_NO": 999, "REV_AT_EPOCH": 411, "BSTAR": -0.016435641, "MEAN_MOTION_DOT": -0.01994453, "MEAN_MOTION_DDOT": 0}, "tle": {"line1": "1 66508U 25263Z   25337.25003472 -.01994453  00000+0 -16436-1 0  9993", "line2": "2 66508  42.9990 181.0442 0001784 272.9774  98.7273 15.72457762  4116"}}, "geometry": {"type": "Point", "coordinates": [-12.733254433026616, 10.358259116009611]}}, {"type": "Feature", "properties": {"norad_id": 66509, "name": "STARLINK-35598", "group": "last-30-days", "lat": 5.188163651249154, "lon": -7.0340708227900315, "alt_km": 356.3123689051263, "timestamp": "2025-12-03T15:48:01.919712+00:00", "meta": {"OBJECT_NAME": "STARLINK-35598", "OBJECT_ID": "2025-263AA", "EPOCH": "2025-12-03T06:00:02.999808", "MEAN_MOTION": 15.72456106, "ECCENTRICITY": 0.00017921, "INCLINATION": 42.9989, "RA_OF_ASC_NODE": 181.023, "ARG_OF_PERICENTER": 272.6892, "MEAN_ANOMALY": 106.6847, "EPHEMERIS_TYPE": 0, "CLASSIFICATION_TYPE": "U", "NORAD_CAT_ID": 66509, "ELEMENT_SET_NO": 999, "REV_AT_EPOCH": 411, "BSTAR": -0.016419602, "MEAN_MOTION_DOT": -0.01992618, "MEAN_MOTION_DDOT": 0}, "tle": {"line1": "1 66509U 25263AA  25337.25003472 -.01992618  00000+0 -16420-1 0  9998", "line2": "2 66509  42.9989 181.0230 0001792 272.6892 106.6847 15.72456106  4114"}}, "geometry": {"type": "Point", "coordinates": [-7.0340708227900315, 5.188163651249154]}}, {"type": "Feature", "properties": {"norad_id": 66510, "name": "STARLINK-35600", "group": "last-30-days", "lat": 9.073556948214463, "lon": -11.29570250038847, "alt_km": 355.74175190026017, "timestamp": "2025-12-03T15:48:01.919723+00:00", "meta": {"OBJECT_NAME": "STARLINK-35600", "OBJECT_ID": "2025-263AB", "EPOCH": "2025-12-03T06:00:02.999808", "MEAN_MOTION": 15.72458182, "ECCENTRICITY": 0.00018343, "INCLINATION": 42.999, "RA_OF_ASC_NODE": 181.0379, "ARG_OF_PERICENTER": 266.2839, "MEAN_ANOMALY": 107.3428, "EPHEMERIS_TYPE": 0, "CLASSIFICATION_TYPE": "U", "NORAD_CAT_ID": 66510, "ELEMENT_SET_NO": 999, "REV_AT_EPOCH": 411, "BSTAR": -0.016494225, "MEAN_MOTION_DOT": -0.02000797, "MEAN_MOTION_DDOT": 0}, "tle": {"line1": "1 66510U 25263AB  25337.25003472 -.02000797  00000+0 -16494-1 0  9990", "line2": "2 66510  42.9990 181.0379 0001834 266.2839 107.3428 15.72458182  4118"}}, "geometry": {"type": "Point", "coordinates": [-11.29570250038847, 9.073556948214463]}}, {"type": "Feature", "properties": {"norad_id": 66511, "name": "STARLINK-35444", "group": "last-30-days", "lat": 6.4867575421883314, "lon": -8.44510213454205, "alt_km": 356.07306317558323, "timestamp": "2025-12-03T15:48:01.919732+00:00", "meta": {"OBJECT_NAME": "STARLINK-35444", "OBJECT_ID": "2025-263AC", "EPOCH": "2025-12-03T06:00:02.999808", "MEAN_MOTION": 15.72455806, "ECCENTRICITY": 0.00017195, "INCLINATION": 42.999, "RA_OF_ASC_NODE": 181.0288, "ARG_OF_PERICENTER": 269.2795, "MEAN_ANOMALY": 108.1787, "EPHEMERIS_TYPE": 0, "CLASSIFICATION_TYPE": "U", "NORAD_CAT_ID": 66511, "ELEMENT_SET_NO": 999, "REV_AT_EPOCH": 411, "BSTAR": -0.016425152, "MEAN_MOTION_DOT": -0.01993127, "MEAN_MOTION_DDOT": 0}, "tle": {"line1": "1 66511U 25263AC  25337.25003472 -.01993127  00000+0 -16425-1 0  9992", "line2": "2 66511  42.9990 181.0288 0001719 269.2795 108.1787 15.72455806  4111"}}, "geometry": {"type": "Point", "coordinates": [-8.44510213454205, 6.4867575421883314]}}, {"type": "Feature", "properties": {"norad_id": 66512, "name": "STARLINK-35366", "group": "last-30-days", "lat": 3.8863028602570777, "lon": -5.62719095003085, "alt_km": 356.28706498163956, "timestamp": "2025-12-03T15:48:01.919740+00:00", "meta": {"OBJECT_NAME": "STARLINK-35366", "OBJECT_ID": "2025-263AD", "EPOCH": "2025-12-03T06:00:02.999808", "MEAN_MOTION": 15.72461717, "ECCENTRICITY": 0.00017915, "INCLINATION": 42.999, "RA_OF_ASC_NODE": 181.0187, "ARG_OF_PERICENTER": 267.05, "MEAN_ANOMALY": 114.2369, "EPHEMERIS_TYPE": 0, "CLASSIFICATION_TYPE": "U", "NORAD_CAT_ID": 66512, "ELEMENT_SET_NO": 999, "REV_AT_EPOCH": 411, "BSTAR": -0.016474149, "MEAN_MOTION_DOT": -0.01998881, "MEAN_MOTION_DDOT": 0}, "tle": {"line1": "1 66512U 25263AD  25337.25003472 -.01998881  00000+0 -16474-1 0  9999", "line2": "2 66512  42.9990 181.0187 0001791 267.0500 114.2369 15.72461717  4112"}}, "geometry": {"type": "Point", "coordinates": [-5.62719095003085, 3.8863028602570777]}}, {"type": "Feature", "properties": {"norad_id": 66513, "name": "STARLINK-35692", "group": "last-30-days", "lat": 7.783660964561728, "lon": -9.867371285226268, "alt_km": 356.0783449771707, "timestamp": "2025-12-03T15:48:01.919749+00:00", "meta": {"OBJECT_NAME": "STARLINK-35692", "OBJECT_ID": "2025-263AE", "EPOCH": "2025-12-03T06:00:02.999808", "MEAN_MOTION": 15.72456879, "ECCENTRICITY": 0.00018879, "INCLINATION": 42.999, "RA_OF_ASC_NODE": 181.0332, "ARG_OF_PERICENTER": 273.3319, "MEAN_ANOMALY": 102.208, "EPHEMERIS_TYPE": 0, "CLASSIFICATION_TYPE": "U", "NORAD_CAT_ID": 66513, "ELEMENT_SET_NO": 999, "REV_AT_EPOCH": 411, "BSTAR": -0.016438701, "MEAN_MOTION_DOT": -0.01994805, "MEAN_MOTION_DDOT": 0}, "tle": {"line1": "1 66513U 25263AE  25337.25003472 -.01994805  00000+0 -16439-1 0  9993", "line2": "2 66513  42.9990 181.0332 0001887 273.3319 102.2080 15.72456879  4119"}}, "geometry": {"type": "Point", "coordinates": [-9.867371285226268, 7.783660964561728]}}, {"type": "Feature", "properties": {"norad_id": 66514, "name": "SENTINEL-6B", "group": "last-30-days", "lat": -63.76352172026631, "lon": 65.83783464926724, "alt_km": 1315.498123899686, "timestamp": "2025-12-03T15:48:01.919761+00:00", "meta": {"OBJECT_NAME": "SENTINEL-6B", "OBJECT_ID": "2025-264A", "EPOCH": "2025-12-03T06:59:27.402432", "MEAN_MOTION": 12.85877469, "ECCENTRICITY": 0.00115387, "INCLINATION": 66.0389, "RA_OF_ASC_NODE": 182.1549, "ARG_OF_PERICENTER": 268.6688, "MEAN_ANOMALY": 91.3008, "EPHEMERIS_TYPE": 0, "CLASSIFICATION_TYPE": "U", "NORAD_CAT_ID": 66514, "ELEMENT_SET_NO": 999, "REV_AT_EPOCH": 207, "BSTAR": 0.00029640172, "MEAN_MOTION_DOT": 1.1e-07, "MEAN_MOTION_DDOT": 0}, "tle": {"line1": "1 66514U 25264A   25337.29128938  .00000011  00000+0  29640-3 0  9998", "line2": "2 66514  66.0389 182.1549 0011538 268.6688  91.3008 12.85877469  2075"}}, "geometry": {"type": "Point", "coordinates": [65.83783464926724, -63.76352172026631]}}, {"type": "Feature", "properties": {"norad_id": 66516, "name": "STARLINK-35924", "group": "last-30-days", "lat": -13.067648115875373, "lon": -57.70276333563646, "alt_km": 345.4652472593725, "timestamp": "2025-12-03T15:48:01.919771+00:00", "meta": {"OBJECT_NAME": "STARLINK-35924", "OBJECT_ID": "2025-265A", "EPOCH": "2025-12-03T06:00:02.999808", "MEAN_MOTION": 15.75069099, "ECCENTRICITY": 0.00017628, "INCLINATION": 42.9995, "RA_OF_ASC_NODE": 110.3511, "ARG_OF_PERICENTER": 267.2713, "MEAN_ANOMALY": 133.9524, "EPHEMERIS_TYPE": 0, "CLASSIFICATION_TYPE": "U", "NORAD_CAT_ID": 66516, "ELEMENT_SET_NO": 999, "REV_AT_EPOCH": 345, "BSTAR": -0.00036064959, "MEAN_MOTION_DOT": -0.00055587, "MEAN_MOTION_DDOT": 0}, "tle": {"line1": "1 66516U 25265A   25337.25003472 -.00055587  00000+0 -36065-3 0  9991", "line2": "2 66516  42.9995 110.3511 0001762 267.2713 133.9524 15.75069099  3450"}}, "geometry": {"type": "Point", "coordinates": [-57.70276333563646, -13.067648115875373]}}, {"type": "Feature", "properties": {"norad_id": 66517, "name": "STARLINK-35937", "group": "last-30-days", "lat": -14.33531118073261, "lon": -56.21347014844565, "alt_km": 345.5201311309047, "timestamp": "2025-12-03T15:48:01.919780+00:00", "meta": {"OBJECT_NAME": "STARLINK-35937", "OBJECT_ID": "2025-265B", "EPOCH": "2025-12-03T06:00:02.999808", "MEAN_MOTION": 15.75059212, "ECCENTRICITY": 0.00016377, "INCLINATION": 42.9994, "RA_OF_ASC_NODE": 110.3469, "ARG_OF_PERICENTER": 264.8992, "MEAN_ANOMALY": 138.2512, "EPHEMERIS_TYPE": 0, "CLASSIFICATION_TYPE": "U", "NORAD_CAT_ID": 66517, "ELEMENT_SET_NO": 999, "REV_AT_EPOCH": 347, "BSTAR": -0.00021410523, "MEAN_MOTION_DOT": -0.00033266, "MEAN_MOTION_DDOT": 0}, "tle": {"line1": "1 66517U 25265B   25337.25003472 -.00033266  00000+0 -21411-3 0  9991", "line2": "2 66517  42.9994 110.3469 0001637 264.8992 138.2512 15.75059212  3478"}}, "geometry": {"type": "Point", "coordinates": [-56.21347014844565, -14.33531118073261]}}, {"type": "Feature", "properties": {"norad_id": 66518, "name": "STARLINK-35962", "group": "last-30-days", "lat": -15.588697062701907, "lon": -54.71397355110664, "alt_km": 345.2771328553463, "timestamp": "2025-12-03T15:48:01.919791+00:00", "meta": {"OBJECT_NAME": "STARLINK-35962", "OBJECT_ID": "2025-265C", "EPOCH": "2025-12-03T06:00:02.999808", "MEAN_MOTION": 15.75035587, "ECCENTRICITY": 0.00018722, "INCLINATION": 42.9994, "RA_OF_ASC_NODE": 110.3419, "ARG_OF_PERICENTER": 254.8752, "MEAN_ANOMALY": 150.1925, "EPHEMERIS_TYPE": 0, "CLASSIFICATION_TYPE": "U", "NORAD_CAT_ID": 66518, "ELEMENT_SET_NO": 999, "REV_AT_EPOCH": 347, "BSTAR": 0.00019693113, "MEAN_MOTION_DOT": 0.00029876, "MEAN_MOTION_DDOT": 0}, "tle": {"line1": "1 66518U 25265C   25337.25003472  .00029876  00000+0  19693-3 0  9991", "line2": "2 66518  42.9994 110.3419 0001872 254.8752 150.1925 15.75035587  3478"}}, "geometry": {"type": "Point", "coordinates": [-54.71397355110664, -15.588697062701907]}}]}